{
    "links": {
        "self": "http://www.neowsapp.com/rest/v1/neo/3788029?api_key=iIulBulltgU6a56xZRHN4H3l9WmuAYTsLGpBGhQ2"
    },
    "id": "3788029",
    "neo_reference_id": "3788029",
    "name": "(2017 UM5)",
    "designation": "2017 UM5",
    "nasa_jpl_url": "http://ssd.jpl.nasa.gov/sbdb.cgi?sstr=3788029",
    "absolute_magnitude_h": 25.6,
    "estimated_diameter": {
        "kilometers": {
            "estimated_diameter_min": 0.0201629919,
            "estimated_diameter_max": 0.0450858206
        },
        "meters": {
            "estimated_diameter_min": 20.1629919443,
            "estimated_diameter_max": 45.0858206172
        },
        "miles": {
            "estimated_diameter_min": 0.0125286985,
            "estimated_diameter_max": 0.0280150214
        },
        "feet": {
            "estimated_diameter_min": 66.1515504905,
            "estimated_diameter_max": 147.9193637137
        }
    },
    "is_potentially_hazardous_asteroid": false,
    "close_approach_data": [
        {
            "close_approach_date": "2017-10-27",
            "close_approach_date_full": "2017-Oct-27 15:57",
            "epoch_date_close_approach": 1509119820000,
            "relative_velocity": {
                "kilometers_per_second": "17.0534406485",
                "kilometers_per_hour": "61392.3863346673",
                "miles_per_hour": "38146.8413866715"
            },
            "miss_distance": {
                "astronomical": "0.0153240172",
                "lunar": "5.9610426908",
                "kilometers": "2292440.332963364",
                "miles": "1424456.3699838632"
            },
            "orbiting_body": "Earth"
        }
    ],
    "orbital_data": {
        "orbit_id": "3",
        "orbit_determination_date": "2017-10-28 06:43:12",
        "first_observation_date": "2017-10-23",
        "last_observation_date": "2017-10-27",
        "data_arc_in_days": 4,
        "observations_used": 65,
        "orbit_uncertainty": "7",
        "minimum_orbit_intersection": ".00952789",
        "jupiter_tisserand_invariant": "3.400",
        "epoch_osculation": "2459000.5",
        "eccentricity": ".6664517897394389",
        "semi_major_axis": "2.122022746822692",
        "inclination": "5.630785560357071",
        "ascending_node_longitude": "27.23003863564993",
        "orbital_period": "1129.076788580777",
        "perihelion_distance": ".7077968893349088",
        "perihelion_argument": "79.3644690061506",
        "aphelion_distance": "3.536248604310475",
        "perihelion_time": "2459228.864485350489",
        "mean_anomaly": "287.1872245026722",
        "mean_motion": ".3188445672083222",
        "equinox": "J2000",
        "orbit_class": {
            "orbit_class_type": "APO",
            "orbit_class_description": "Near-Earth asteroid orbits which cross the Earth’s orbit similar to that of 1862 Apollo",
            "orbit_class_range": "a (semi-major axis) > 1.0 AU; q (perihelion) < 1.017 AU"
        }
    },
    "is_sentry_object": false
}